OBJECT_NAME,OBJECT_ID,EPOCH,MEAN_MOTION,ECCENTRICITY,INCLINATION,RA_OF_ASC_NODE,ARG_OF_PERICENTER,MEAN_ANOMALY,EPHEMERIS_TYPE,CLASSIFICATION_TYPE,NORAD_CAT_ID,ELEMENT_SET_NO,REV_AT_EPOCH,BSTAR,MEAN_MOTION_DOT,MEAN_MOTION_DDOT
JCSAT-3A,2006-033A,2026-07-11T17:35:16.454112,1.00269576,.00024799,0.0178,321.5511,167.1545,192.7405,0,U,29272,999,4798,0,-.34E-5,0
KOREASAT 5 (MUGUNGWHA 5),2006-034A,2026-07-11T17:31:01.860960,1.00271605,.00016812,1.8457,82.6845,78.3162,144.4496,0,U,29349,999,4156,0,-.355E-5,0
DIRECTV 9S,2006-043A,2026-07-11T14:47:14.849376,1.00270966,.00049875,2.4810,80.6077,32.5564,296.9675,0,U,29494,999,5162,0,-.111E-5,0
OPTUS D1,2006-043B,2026-07-11T15:59:23.127360,1.00270471,.00033133,3.0950,79.3549,29.9262,212.1008,0,U,29495,999,7236,0,-.182E-5,0
BADR-4,2006-051A,2026-07-11T16:24:31.164192,1.00268096,.00048174,2.0653,80.8568,27.9548,101.3611,0,U,29526,999,5151,0,.158E-5,0
WILDBLUE-1,2006-054A,2026-07-11T14:44:30.112224,1.00270918,.00012419,2.8633,80.1774,33.2348,286.0246,0,U,29643,999,5403,0,-.47E-6,0
SKYNET 5A,2007-007B,2026-07-11T18:52:21.810720,1.00270634,.00037009,5.3609,73.4405,40.5293,194.0242,0,U,30794,999,7094,0,-.272E-5,0
ANIK F3,2007-009A,2026-07-11T16:24:35.711424,1.00271975,.00024794,1.2581,83.5592,36.8423,296.6220,0,U,31102,999,4680,0,.3E-7,0
ASTRA 1L,2007-016A,2026-07-11T08:18:34.530336,1.00270600,.00052479,1.3814,81.3786,33.1637,274.8448,0,U,31306,999,4522,0,-.18E-5,0
GALAXY 17 (G-17),2007-016B,2026-07-11T13:09:12.918816,1.00270744,.00035535,3.0305,79.5932,32.7314,289.4088,0,U,31307,999,7004,0,-.204E-5,0
INTELSAT 11 (IS-11),2007-044B,2026-07-11T06:48:29.508768,0.99050871,.00040334,3.6253,78.3769,99.9035,232.8124,0,U,32253,999,6868,0,-.59E-6,0
WGS F1 (USA 195),2007-046A,2026-07-11T16:46:41.092608,1.00269016,.00004619,0.0136,77.4636,146.0360,275.2807,0,U,32258,999,5258,0,-.262E-5,0
SKYNET 5B,2007-056B,2026-07-11T17:04:15.562272,1.00273027,.0003746,5.3124,73.2116,38.5006,99.0437,0,U,32294,999,6844,0,.139E-5,0
ASTRA 4A,2007-057A,2026-07-11T15:17:34.441152,1.00270508,.00022503,0.0481,282.0865,195.3203,46.3226,0,U,32299,999,5189,0,.37E-6,0
HORIZONS-2,2007-063B,2026-07-11T18:20:27.123648,1.00270298,.00035433,2.6627,80.3243,18.1468,32.5118,0,U,32388,999,6806,0,-.252E-5,0
THURAYA-3,2008-001A,2026-07-11T15:08:38.654880,1.00270971,.00021184,6.0292,35.8147,76.1836,108.3906,0,U,32404,999,6773,0,.1E-6,0
THOR 5,2008-006A,2026-07-11T15:15:57.096864,1.00270587,.00022861,0.0527,238.0838,241.1077,38.5793,0,U,32487,999,6756,0,-.4E-7,0
AMC-14,2008-011A,2026-07-11T01:02:21.635808,1.00420320,.00398145,24.0378,20.2317,8.2429,352.6235,0,U,32708,999,6841,0,-.162E-5,0
DIRECTV 11,2008-013A,2026-07-11T14:47:52.289088,1.00272228,.00001525,0.0131,264.0793,268.8149,239.4093,0,U,32729,999,4583,0,-.12E-5,0
ICO G1,2008-016A,2026-07-11T14:49:37.120800,1.00272818,.00022125,5.5292,36.0581,66.0722,316.9456,0,U,32763,999,6679,0,-.171E-5,0
VINASAT-1,2008-018A,2026-07-11T17:36:23.846112,1.00270850,.0001393,0.0370,289.4437,201.1897,195.0463,0,U,32767,999,6683,0,-.324E-5,0
STAR ONE C2,2008-018B,2026-07-11T18:22:56.884224,1.00272057,.0002654,1.3004,82.2281,43.5558,14.6151,0,U,32768,999,6690,0,-.273E-5,0
AMOS-3,2008-022A,2026-07-11T15:08:38.654880,1.00487051,.00029648,0.5156,85.8626,84.2059,44.1072,0,U,32794,999,8258,0,.33E-6,0
GALAXY 18 (G-18),2008-024A,2026-07-11T18:06:20.975616,1.00270290,.0002801,0.0279,47.9198,78.7436,311.5850,0,U,32951,999,4609,0,0,0
ZHONGXING-9,2008-028A,2026-07-11T17:27:58.298112,1.00270636,.00033177,0.8278,85.0510,19.5944,179.3552,0,U,33051,999,6628,0,-.245E-5,0
SKYNET 5C,2008-030A,2026-07-11T10:03:03.544992,1.00272545,.00040337,3.8481,76.7516,43.5647,301.9618,0,U,33055,999,6619,0,-.138E-5,0
TURKSAT 3A,2008-030B,2026-07-11T15:28:06.638592,1.00268459,.0004957,0.0252,66.7150,25.1975,111.6617,0,U,33056,999,5260,0,.151E-5,0
ECHOSTAR 11,2008-035A,2026-07-11T14:44:52.576224,1.00270493,.00022165,1.0656,83.8987,14.5509,302.4906,0,U,33207,999,5145,0,-.54E-6,0
SUPERBIRD-C2,2008-038A,2026-07-11T17:37:38.727264,1.00270441,.00061197,2.4215,80.9572,38.5990,210.4962,0,U,33274,999,10597,0,-.304E-5,0
INMARSAT 4-F3,2008-039A,2026-07-11T08:59:56.525856,1.00272671,.00027447,4.3137,31.6948,80.7609,213.8106,0,U,33278,999,4678,0,-.138E-5,0
NIMIQ 4,2008-044A,2026-07-11T09:08:16.436256,1.00265856,.00022194,0.0343,63.7031,74.8703,205.7933,0,U,33373,999,6522,0,0,0
GALAXY 19 (G-19),2008-045A,2026-07-11T16:30:57.601152,1.00272177,.0002327,0.0534,246.1007,233.9818,320.2425,0,U,33376,999,6514,0,-.134E-5,0
