JCSAT-3A                
1 29272U 06033A   26192.73282933 -.00000340  00000+0  00000+0 0  9997
2 29272   0.0178 321.5511 0002479 167.1545 192.7405  1.00269576 47981
KOREASAT 5 (MUGUNGWHA 5)
1 29349U 06034A   26192.72988265 -.00000355  00000+0  00000+0 0  9999
2 29349   1.8457  82.6845 0001681  78.3162 144.4496  1.00271605 41560
DIRECTV 9S              
1 29494U 06043A   26192.61614409 -.00000111  00000+0  00000+0 0  9994
2 29494   2.4810  80.6077 0004987  32.5564 296.9675  1.00270966 51625
OPTUS D1                
1 29495U 06043B   26192.66623990 -.00000182  00000+0  00000+0 0  9993
2 29495   3.0950  79.3549 0003313  29.9262 212.1008  1.00270471 72369
BADR-4                  
1 29526U 06051A   26192.68369403  .00000158  00000+0  00000+0 0  9997
2 29526   2.0653  80.8568 0004817  27.9548 101.3611  1.00268096 51519
WILDBLUE-1              
1 29643U 06054A   26192.61423741 -.00000047  00000+0  00000+0 0  9997
2 29643   2.8633  80.1774 0001241  33.2348 286.0246  1.00270918 54034
SKYNET 5A               
1 30794U 07007B   26192.78636355 -.00000272  00000+0  00000+0 0  9990
2 30794   5.3609  73.4405 0003700  40.5293 194.0242  1.00270634 70949
ANIK F3                 
1 31102U 07009A   26192.68374666  .00000003  00000+0  00000+0 0  9990
2 31102   1.2581  83.5592 0002479  36.8423 296.6220  1.00271975 46803
ASTRA 1L                
1 31306U 07016A   26192.34623299 -.00000180  00000+0  00000+0 0  9993
2 31306   1.3814  81.3786 0005247  33.1637 274.8448  1.00270600 45222
GALAXY 17 (G-17)        
1 31307U 07016B   26192.54806619 -.00000204  00000+0  00000+0 0  9992
2 31307   3.0305  79.5932 0003553  32.7314 289.4088  1.00270744 70043
INTELSAT 11 (IS-11)     
1 32253U 07044B   26192.28367487 -.00000059  00000+0  00000+0 0  9998
2 32253   3.6253  78.3769 0004033  99.9035 232.8124  0.99050871 68680
WGS F1 (USA 195)        
1 32258U 07046A   26192.69908672 -.00000262  00000+0  00000+0 0  9993
2 32258   0.0136  77.4636 0000461 146.0360 275.2807  1.00269016 52582
SKYNET 5B               
1 32294U 07056B   26192.71129123  .00000139  00000+0  00000+0 0  9995
2 32294   5.3124  73.2116 0003746  38.5006  99.0437  1.00273027 68445
ASTRA 4A                
1 32299U 07057A   26192.63720418  .00000037  00000+0  00000+0 0  9993
2 32299   0.0481 282.0865 0002250 195.3203  46.3226  1.00270508 51892
HORIZONS-2              
1 32388U 07063B   26192.76420282 -.00000252  00000+0  00000+0 0  9999
2 32388   2.6627  80.3243 0003543  18.1468  32.5118  1.00270298 68061
THURAYA-3               
1 32404U 08001A   26192.63100295  .00000010  00000+0  00000+0 0  9997
2 32404   6.0292  35.8147 0002118  76.1836 108.3906  1.00270971 67732
THOR 5                  
1 32487U 08006A   26192.63607751 -.00000004  00000+0  00000+0 0  9996
2 32487   0.0527 238.0838 0002286 241.1077  38.5793  1.00270587 67561
AMC-14                  
1 32708U 08011A   26192.04330597 -.00000162  00000+0  00000+0 0  9999
2 32708  24.0378  20.2317 0039814   8.2429 352.6235  1.00420320 68418
DIRECTV 11              
1 32729U 08013A   26192.61657742 -.00000120  00000+0  00000+0 0  9995
2 32729   0.0131 264.0793 0000152 268.8149 239.4093  1.00272228 45831
ICO G1                  
1 32763U 08016A   26192.61779075 -.00000171  00000+0  00000+0 0  9996
2 32763   5.5292  36.0581 0002212  66.0722 316.9456  1.00272818 66790
VINASAT-1               
1 32767U 08018A   26192.73360933 -.00000324  00000+0  00000+0 0  9994
2 32767   0.0370 289.4437 0001393 201.1897 195.0463  1.00270850 66832
STAR ONE C2             
1 32768U 08018B   26192.76593616 -.00000273  00000+0  00000+0 0  9997
2 32768   1.3004  82.2281 0002654  43.5558  14.6151  1.00272057 66909
AMOS-3                  
1 32794U 08022A   26192.63100295  .00000033  00000+0  00000+0 0  9997
2 32794   0.5156  85.8626 0002964  84.2059  44.1072  1.00487051 82585
GALAXY 18 (G-18)        
1 32951U 08024A   26192.75440944  .00000000  00000+0  00000+0 0  9999
2 32951   0.0279  47.9198 0002801  78.7436 311.5850  1.00270290 46097
ZHONGXING-9             
1 33051U 08028A   26192.72775808 -.00000245  00000+0  00000+0 0  9994
2 33051   0.8278  85.0510 0003317  19.5944 179.3552  1.00270636 66283
SKYNET 5C               
1 33055U 08030A   26192.41879103 -.00000138  00000+0  00000+0 0  9991
2 33055   3.8481  76.7516 0004033  43.5647 301.9618  1.00272545 66199
TURKSAT 3A              
1 33056U 08030B   26192.64452128  .00000151  00000+0  00000+0 0  9995
2 33056   0.0252  66.7150 0004957  25.1975 111.6617  1.00268459 52608
ECHOSTAR 11             
1 33207U 08035A   26192.61449741 -.00000054  00000+0  00000+0 0  9995
2 33207   1.0656  83.8987 0002216  14.5509 302.4906  1.00270493 51458
SUPERBIRD-C2            
1 33274U 08038A   26192.73447601 -.00000304  00000+0  00000+0 0  9996
2 33274   2.4215  80.9572 0006119  38.5990 210.4962  1.00270441105972
INMARSAT 4-F3           
1 33278U 08039A   26192.37495979 -.00000138  00000+0  00000+0 0  9997
2 33278   4.3137  31.6948 0002744  80.7609 213.8106  1.00272671 46783
NIMIQ 4                 
1 33373U 08044A   26192.38074579  .00000000  00000+0  00000+0 0  9996
2 33373   0.0343  63.7031 0002219  74.8703 205.7933  1.00265856 65221
GALAXY 19 (G-19)        
1 33376U 08045A   26192.68816668 -.00000134  00000+0  00000+0 0  9995
2 33376   0.0534 246.1007 0002327 233.9818 320.2425  1.00272177 65145
